Name,Capital,Type,Existed,Region,Today Part of,CountryName,Country_Latitude,Country_Longitude
Luanda,"Colony, Portuguese",1575–1975,Africa: Central,Angola,,,,
Kingdom of Kongo,São Salvador,Kingdom/client,1390–1914,Africa: Central,Angola,Angola,-8.833333333,13.216667
Kasanje Kingdom,Not specified,Kingdom,1620–1910,Africa: Central,Angola,Angola,-8.833333333,13.216667
Kamerun,Yaoundé,"Colony, Germany",1884–1916,Africa: Central,Cameroon,Cameroon,3.866666667,11.516667
Sultanate of Bagirmi,Chekna,Sultanate,1522–1897,Africa: Central,Chad,Chad,12.1,15.033333
French Chad,Fort Lamy,"Colony, French",1900–1960,Africa: Central,Chad,Chad,12.1,15.033333
Wadai Empire,Abéché,Empire,1635–1909,Africa: Central,Chad,Chad,12.1,15.033333
Congo Free State,Boma,Kingdom,1885–1908,Africa: Central,Democratic Republic of the Congo,Democratic Republic of the Congo,-4.316666667,15.3
Kuba Kingdom,Not specified,Kingdom,c.1600–19th century,Africa: Central,Democratic Republic of the Congo,Democratic Republic of the Congo,-4.316666667,15.3
Kingdom of Luba,Mwibele,Kingdom,1585–1889,Africa: Central,Democratic Republic of the Congo,Democratic Republic of the Congo,-4.316666667,15.3
Kingdom of Lunda,Not specified,Kingdom,c.1665–1887,Africa: Central,Democratic Republic of the Congo,Democratic Republic of the Congo,-4.316666667,15.3
Yeke Kingdom,Bunkeya,Kingdom,1856–1891,Africa: Central,Democratic Republic of the Congo,Democratic Republic of the Congo,-4.316666667,15.3
Kingdom of Orungu,,Kingdom,c.1700–1927,Africa: Central,Gabon,Gabon,0.383333333,9.45
Anziku Kingdom,,Kingdom,17th century–1875,Africa: Central,Republic of the Congo,,,
French Congo,,"Colony, French",1882–1910,Africa: Central,Republic of the Congo,,,
Kingdom of Loango,,Kingdom,c.1550–c.1883,Africa: Central,Republic of the Congo,,,
Portuguese São Tomé and Príncipe,,"Colony, Portuguese",1470–1975,Africa: Central,São Tomé and Príncipe,,,
Kazembe chiefdom,,Chiefdom,1740–1904,Africa: Central,Zambia,Zambia,-15.41666667,28.283333
Sultans of the Comoros,,Sultanate,15th century–c.1912,Africa: East,Comoros,Comoros,-11.7,43.233333
Merina Kingdom,Antananarivo,Kingdom,1540–1897,Africa: East,Madagascar,Madagascar,-18.91666667,47.516667
Medri Bahri,Debarwa,Kingdom,1137–1890,"Africa: East, Horn",Eritrea,Eritrea,15.33333333,38.933333
Sultanate of Aussa,Asaita,Sultanate,1734–1902,"Africa: East, Horn",Ethiopia,Ethiopia,9.033333333,38.7
Ethiopian Empire,Addis Ababa,Empire,1137–1935; 1942–1974,"Africa: East, Horn",Ethiopia,Ethiopia,9.033333333,38.7
Kingdom of Garo,,Kingdom,1567–1883,"Africa: East, Horn",Ethiopia,Ethiopia,9.033333333,38.7
Kingdom of Gomma,,Kingdom,c.1780–1886,"Africa: East, Horn",Ethiopia,Ethiopia,9.033333333,38.7
Kingdom of Gumma,,Kingdom,c.1770–1902,"Africa: East, Horn",Ethiopia,Ethiopia,9.033333333,38.7
Kingdom of Janjero,,Kingdom,15th century–1894,"Africa: East, Horn",Ethiopia,Ethiopia,9.033333333,38.7
Kingdom of Jimma,,Kingdom,1790–1932,"Africa: East, Horn",Ethiopia,Ethiopia,9.033333333,38.7
Kingdom of Kaffa,,Kingdom,c.1390–1897,"Africa: East, Horn",Ethiopia,Ethiopia,9.033333333,38.7
Kingdom of Limmu-Ennarea,,Kingdom,1801–1891,"Africa: East, Horn",Ethiopia,Ethiopia,9.033333333,38.7
Kingdom of Welayta,,Kingdom,c.1250–1894,"Africa: East, Horn",Ethiopia,Ethiopia,9.033333333,38.7
British Somaliland,Hargeisa,"Colony, British",1884–1940; 1941–1960,"Africa: East, Horn",Somaliland,Somaliland,9.55,44.05
Sultanate of Hobyo,,Sultanate,1878–1926,"Africa: East, Horn",Somalia,Somalia,2.066666667,45.333333
Majeerteen Sultanate,,Sultanate,c.1600–1924,"Africa: East, Horn",Somalia,Somalia,2.066666667,45.333333
Isaaq Sultanate,Hargeisa,Sultanate,~1750s–1884,"Africa: East, Horn",Somaliland,Somaliland,9.55,44.05
Kingdom of Burundi,,Kingdom,1680–1966,"Africa: East, Lakes",Burundi,Burundi,-3.366666667,29.35
Wituland,,,1858–1885,"Africa: East, Lakes",Kenya,Kenya,-1.283333333,36.816667
Kingdom of Rwanda,,Kingdom,11th century–1962,"Africa: East, Lakes",Rwanda,Rwanda,-1.95,30.05
Shilluk Kingdom,Fashoda,Kingdom,c.1490–1865,"Africa: East, Lakes",South Sudan,South Sudan,4.85,31.616667
Sultanate of Zanzibar,,Sultanate,1856–1964,"Africa: East, Lakes",Tanzania,Tanzania,-6.8,39.283333
Ankole,,Kingdom,late 15th century–1967,"Africa: East, Lakes",Uganda,Uganda,0.316666667,32.55
Buganda,Kampala,Kingdom,early 14th century–1967,"Africa: East, Lakes",Uganda,Uganda,0.316666667,32.55
Bunyoro,,Kingdom,16th century–1967,"Africa: East, Lakes",Uganda,Uganda,0.316666667,32.55
Khedivate of Egypt,,Khedivate,1867–1914,Africa: Northeast,Egypt,Egypt,30.05,31.25
Funj Sultanate,,Sultanate,1504–1821,Africa: Northeast,Sudan,Sudan,15.6,32.533333
Anglo-Egyptian Sudan,,"Colony, British/Egyptian",1899–1956,Africa: Northeast,Sudan,Sudan,15.6,32.533333
Sultanate of Darfur,,Sultanate,1603–1874; 1898–1916,Africa: Northeast,Sudan,Sudan,15.6,32.533333
French Algeria,,"Colony, French",1830–1962,Africa: Northwest,Algeria,Algeria,36.75,3.05
Ottoman Algeria,Algiers,"Quasi-independent Territory, Ottomans",1517–1830,Africa: Northwest,Algeria,Algeria,36.75,3.05
Sultanate of Morocco,Fes,Sultanate,1668–1912,Africa: Northwest,Morocco,Morocco,34.01666667,-6.816667
Spanish Sahara,,"Territory, Spanish",1884–1975,Africa: Northwest,Western Sahara,Western Sahara,27.153611,-13.203333
Bechuanaland Protectorate,,Protectorate,1885–1966,Africa: South,Botswana,Botswana,-24.63333333,25.9
Basutoland,,,1884–1966,Africa: South,Lesotho,Lesotho,-29.31666667,27.483333
Maravi,,,Late 15th century–1870,Africa: South,Malawi,Malawi,-13.96666667,33.783333
Gaza Empire,,Empire,1824–1895,Africa: South,Mozambique,Mozambique,-25.95,32.583333
Portuguese Mozambique,,"Colony, Portuguese",1498–1975,Africa: South,Mozambique,Mozambique,-25.95,32.583333
Angoche Sultanate,"Angoche, Moma",Sultanate,1485–1910,Africa: South,Mozambique ,Mozambique,-25.95,32.583333
German South West Africa,,"Colony, German",1884–1915,Africa: South,Namibia,Namibia,-22.56666667,17.083333
Kaapstad,,"Colony, Dutch",,Africa: South,South Africa,South Africa,-25.7,28.216667
Mthethwa Paramountcy,,Empire,c.1780–1817,Africa: South,South Africa,South Africa,-25.7,28.216667
Colony of Natal,,"Colony, British",1843–1910,Africa: South,South Africa,South Africa,-25.7,28.216667
Nieuwe Republiek,,Republiek,1884–1888,Africa: South,South Africa,South Africa,-25.7,28.216667
Cape Colony,Cape Town,"Colony, British",1795–1910,Africa: South,South Africa,South Africa,-25.7,28.216667
Orange Free State,,,1854–1902,Africa: South,South Africa,South Africa,-25.7,28.216667
South African Republic,,Republic,1856–1877; 1881–1902; 1914–1915,Africa: South,South Africa,South Africa,-25.7,28.216667
Transvaal Colony,,"Colony, British",1877–1881; 1902–1910,Africa: South,South Africa,South Africa,-25.7,28.216667
Zulu Kingdom,,Kingdom,1816–1897,Africa: South,South Africa,South Africa,-25.7,28.216667
Kingdom of Eswatini,,,1745–1906; 1968–present,Africa: South,Swaziland,Swaziland,-26.31666667,31.133333
Barotseland,,,17th century–1900,Africa: South,Zambia,Zambia,-15.41666667,28.283333
Mthwakazi,,,1830s–1889,Africa: South,Zimbabwe,Zimbabwe,-17.81666667,31.033333
Rozvi Empire,,Empire,1660–1866,Africa: South,Zimbabwe,Zimbabwe,-17.81666667,31.033333
Company rule in Rhodesia by the British South Africa Company,,Company rule,1890–1924,Africa: South,Zimbabwe,Zimbabwe,-17.81666667,31.033333
Dahomey,,Kingdom,c.1600–1904,Africa: West,Benin,Benin,6.483333333,2.616667
Mossi Kingdoms,,Kingdoms,11th century–1896,Africa: West,Burkina Faso,Burkina Faso,12.36666667,-1.516667
Portuguese Cape Verde,,"Colony, Portuguese",1462–1975,Africa: West,Cape Verde,Cape Verde,14.91666667,-23.516667
Bornu Empire (Kanem–Bornu),Ngazargamu,Empire,1380–1893,Africa: West,Chad,Chad,12.1,15.033333
Gambia Colony and Protectorate,,"Colony, British",1821–1965,Africa: West,Gambia,,,
Kingdom of Ashanti,,Empire,1670–1902; 1935–1957,Africa: West,Ghana,Ghana,5.55,-0.216667
Gyaaman,,,1450–1895,Africa: West,Ghana,Ghana,5.55,-0.216667
Fante Confederacy,,Confederation,1868–1874,Africa: West,Ghana,Ghana,5.55,-0.216667
Portuguese Guinea,,"Colony, Portuguese",1474–1974,Africa: West,Guinea,Guinea,9.5,-13.7
Imamate of Futa Jallon,,Imamate,1725–1896,Africa: West,Guinea ,Guinea,9.5,-13.7
Wassoulou Empire,,Empire,1878–1898,Africa: West,Guinea ,Guinea,9.5,-13.7
Baté Empire,,Empire,until 1879,Africa: West,Guinea ,Guinea,9.5,-13.7
Kong Empire,,Empire,1710–1898,Africa: West,Ivory Coast,,,
Republic of Maryland,,Republic,1854–1857,Africa: West,Liberia,Liberia,6.3,-10.8
Liberia,,Republic,1847–present,Africa: West,Liberia,Liberia,6.3,-10.8
Kaabu,,Kingdom,1537–1867,Africa: West,Mali ,,,
Kénédougou Kingdom,,Kingdom,c.1650–1898,Africa: West,Mali ,,,
Khasso,,Kingdom,17th century–1880,Africa: West,Mali ,,,
Bamana Empire,,Empire,1712–1861,Africa: West,Mali ,,,
Kaarta,,,1753–1890,Africa: West,Mali ,,,
Pashalik of Timbuktu,,,1591–1833,Africa: West,Mali ,,,
Toucouleur Empire,,Empire,1848–1893,Africa: West,Mali ,,,
Massina Empire,,Empire,c.1818–1862,Africa: West,Mali ,,,
Sultanate of Damagaram,,Sultanate,1731–1851,Africa: West,Niger,Niger,13.51666667,2.116667
Dendi Kingdom: Askiya Dynasty,,Kingdom,1591–1901,Africa: West,Niger,Niger,13.51666667,2.116667
Aro Confederacy,,Confederation,1690–1902,Africa: West,Nigeria,Nigeria,9.083333333,7.533333
Kano Emirate,,Emirate,1807–1903,Africa: West,Nigeria,Nigeria,9.083333333,7.533333
Kingdom of Nri,Igbo-Ukwu,Kingdom,948–1911,Africa: West,Nigeria,Nigeria,9.083333333,7.533333
Sokoto Caliphate,,Caliphate,1804–1903,Africa: West,Nigeria,Nigeria,9.083333333,7.533333
Oyo Empire,Oyo-Ile,Kingdom,c.1400–1896,Africa: West,Nigeria,Nigeria,9.083333333,7.533333
Kingdom of Benin,Benin City,Empire,1180–1897,Africa: West,Nigeria ,Nigeria,9.083333333,7.533333
French West Africa,,"Colony, French",1895–1958,Africa: West,Senegal,Senegal,14.73333333,-17.633333
Cayor,,Kingdom,1549–1879,Africa: West,Senegal,Senegal,14.73333333,-17.633333
Imamate of Futa Toro,,Imamate,1776–1861,Africa: West,Senegal,Senegal,14.73333333,-17.633333
Kingdom of Jolof,,Kingdom,1549–1875,Africa: West,Senegal,Senegal,14.73333333,-17.633333
Bundu,,,17th century–1858,Africa: West,Senegal,Senegal,14.73333333,-17.633333
Kingdom of Sine,,Kingdom,1350–1969,Africa: West,Senegal,Senegal,14.73333333,-17.633333
Baol,,Kingdom,1555–1874,Africa: West,Senegal ,,,
Kingdom of Koya,,Kingdom,1505–1896,Africa: West,Sierra Leone,Sierra Leone,8.483333333,-13.233333
Sierra Leone Colony and Protectorate,,"Colony, British",1800–1961,Africa: West,Sierra Leone,Sierra Leone,8.483333333,-13.233333
German Togoland,,,1884–1916,Africa: West,Togo,Togo,6.116666667,1.216667
Colonial Antigua,,"Colony, British",1632–1981,Americas: Caribbean,Antigua,,,
Colony of the Bahamas,,"Colony, British",1648–1973,Americas: Caribbean,Bahamas,Bahamas,25.08333333,-77.35
Colonial Barbados,,,1627–1958; 1962–1966,Americas: Caribbean,Barbados,Barbados,13.1,-59.616667
Captaincy General of Cuba,,"Territory, Spanish",1607–1898,Americas: Caribbean,Cuba,Cuba,23.11666667,-82.35
Colonial Dominica,,"Colony, British",1715–1978,Americas: Caribbean,Dominica,Dominica,15.3,-61.4
Dominican Republic,,Republic,1844–1861; 1865–present,Americas: Caribbean,Dominican,,,
Colonial Saint Vincent and the Grenadines,,"Colony, British",1763–1979,Americas: Caribbean,Grenadines,,,
First Empire of Haiti,,Empire,1804–1806,Americas: Caribbean,Haiti,Haiti,18.53333333,-72.333333
Third Haitian Republic,,,1859–present,Americas: Caribbean,Haiti,Haiti,18.53333333,-72.333333
Kingdom of Haiti,,Kingdom,1811–1820,Americas: Caribbean,Haiti,Haiti,18.53333333,-72.333333
State of Haiti,,,1806–1811,Americas: Caribbean,Haiti,Haiti,18.53333333,-72.333333
Saint-Domingue,,"Colony, French",1625–1804,Americas: Caribbean,Haiti,Haiti,18.53333333,-72.333333
Colonial Saint Lucia,,"Colony, British",1762–1979,Americas: Caribbean,Saint Lucia,Saint Lucia,14,-61
Colonial Trinidad and Tobago,,"Colony, British",1889–1962,Americas: Caribbean,Trinidad and Tobago,Trinidad and Tobago,10.65,-61.516667
British Honduras,,"Colony, British",1862–1981,Americas: Central,Belize,Belize,17.25,-88.766667
Costa Rica,,,1823–present,Americas: Central,Costa Rica,Costa Rica,9.933333333,-84.083333
El Salvador,,,1841–present,Americas: Central,El Salvador,El Salvador,13.7,-89.2
United Provinces of Central America,,Republic,1823–1838,Americas: Central,Guatemala,Guatemala,14.61666667,-90.516667
Federal Republic of Central America,,Republic,1823–1838,Americas: Central,Guatemala,Guatemala,14.61666667,-90.516667
Captaincy General of Guatemala,,"Territory, Spanish",1609–1821,Americas: Central,Guatemala,Guatemala,14.61666667,-90.516667
Guatemala,,,1823–present,Americas: Central,Guatemala,Guatemala,14.61666667,-90.516667
Greater Republic of Central America,,Republic,1896–1898,Americas: Central,Honduras,Honduras,14.1,-87.216667
Honduras,,,1838–present,Americas: Central,Honduras,Honduras,14.1,-87.216667
Mosquito Coast,,,1838–1894,Americas: Central,Nicaragua,Nicaragua,12.13333333,-86.25
Nicaragua,,,1894–present,Americas: Central,Nicaragua,Nicaragua,12.13333333,-86.25
Canada,,Kingdom,1867–present,Americas: North,Canada,Canada,45.41666667,-75.7
Republic of Manitoba,,Republic,1867–1870,Americas: North,Canada,Canada,45.41666667,-75.7
Greenland,,Company rule,1774–1908,Americas: North,Greenland,Greenland,64.18333333,-51.75
Chan Santa Cruz,,,c.1850–1901,Americas: North,Mexico,Mexico,19.43333333,-99.133333
First Mexican Empire,,Empire,1821–1823,Americas: North,Mexico,Mexico,19.43333333,-99.133333
Mexico,,Republic,1867–present,Americas: North,Mexico,Mexico,19.43333333,-99.133333
Republic of the Rio Grande,,Republic,1840–1840,Americas: North,Mexico,Mexico,19.43333333,-99.133333
Second Mexican Empire,,Empire,1864–1867,Americas: North,Mexico,Mexico,19.43333333,-99.133333
Republic of Sonora,,Republic,1854–1854,Americas: North,Mexico,Mexico,19.43333333,-99.133333
Republic of Yucatán,,Republic,1823; 1841–1848,Americas: North,Mexico,Mexico,19.43333333,-99.133333
California Republic,,Republic,1846–1846,Americas: North,United States,United States,38.883333,-77
Cherokee Nation,,,1794–1907,Americas: North,United States,United States,38.883333,-77
Confederate States of America,,Confederation,1861–1865,Americas: North,United States,United States,38.883333,-77
Republic of Indian Stream,,Republic,1832–1835,Americas: North,United States,United States,38.883333,-77
State of Muskogee,,,1799–1803,Americas: North,United States,United States,38.883333,-77
Republic of Texas,,Republic,1836–1846,Americas: North,United States,United States,38.883333,-77
United States,"Washington, D.C.",Republic,1776–present,Americas: North,United States,United States,38.883333,-77
Republic of West Florida,,Republic,1810–1810,Americas: North,United States,United States,38.883333,-77
Kingdom of Araucanía and Patagonia,,Kingdom,1860–1862,Americas: South,Argentina,Argentina,-34.58333333,-58.666667
Argentina,,,1861–present,Americas: South,Argentina,Argentina,-34.58333333,-58.666667
Buenos Aires,,,1852–1861,Americas: South,Argentina,Argentina,-34.58333333,-58.666667
Argentine Confederation,,Confederation,1831–1861,Americas: South,Argentina,Argentina,-34.58333333,-58.666667
United Provinces of the Río de la Plata,,,1810–1831,Americas: South,Argentina,Argentina,-34.58333333,-58.666667
Viceroyalty of the Río de la Plata,,"Territory, Spanish",1776–1810,Americas: South,Argentina,Argentina,-34.58333333,-58.666667
Bolivia,,,1839–present,Americas: South,Bolivia,Bolivia,-16.5,-68.15
Republic of Acre,,Republic,1899-1900; 1903,Americas: South,Brazil,Brazil,-15.78333333,-47.916667
First Brazilian Republic,,Republic,1889–1930,Americas: South,Brazil,Brazil,-15.78333333,-47.916667
"Portugal, Brazil and the Algarves",,Kingdom,1815–1822/1825,Americas: South,Brazil,Brazil,-15.78333333,-47.916667
Captaincy General of Chile,,"Territory, Spanish",1541–1818,Americas: South,Chile,Chile,-33.45,-70.666667
Chile,,Republic,1818–present,Americas: South,Chile,Chile,-33.45,-70.666667
Republic of Colombia,,,1886–present,Americas: South,Colombia,Colombia,4.6,-74.083333
United States of Colombia,,,1863–1886,Americas: South,Colombia,Colombia,4.6,-74.083333
Gran Colombia,,,1821–1831,Americas: South,Colombia,Colombia,4.6,-74.083333
Granadine Confederation,,Confederation,1858–1863,Americas: South,Colombia,Colombia,4.6,-74.083333
Republic of New Granada,,Republic,1831–1858,Americas: South,Colombia,Colombia,4.6,-74.083333
United Provinces of New Granada,,Republic,1810–1816,Americas: South,Colombia,Colombia,4.6,-74.083333
Viceroyalty of New Granada,,"Territory, Spanish",1717–1819,Americas: South,Colombia,Colombia,4.6,-74.083333
Ecuador,,,1830–present,Americas: South,Ecuador,Ecuador,-0.216666667,-78.5
British Guiana,,"Colony, British",1814–1966,Americas: South,Guyana,Guyana,6.8,-58.15
Paraguay,,,1811–present,Americas: South,Paraguay,Paraguay,-25.26666667,-57.666667
Peru,,,1839–present,Americas: South,Peru,Peru,-12.05,-77.05
Viceroyalty of Peru,,"Territory, Spanish",1542–1824,Americas: South,Peru,Peru,-12.05,-77.05
Peru–Bolivian Confederation,,Confederation,1836–1839,Americas: South,Peru,Peru,-12.05,-77.05
Dutch Surinam,,"Colony, Dutch",1667–1954,Americas: South,Suriname,Suriname,5.833333333,-55.166667
Liga Federal,,Federation,1815–1820,Americas: South,Uruguay,Uruguay,-34.85,-56.166667
Uruguay,,,1828–present,Americas: South,Uruguay,Uruguay,-34.85,-56.166667
United States of Venezuela,,,1864–1953,Americas: South,Venezuela,Venezuela,10.48333333,-66.866667
Kazakh Khanate,,Khanate,1456–1847,Asia: Central,Kazakhstan,Kazakhstan,51.16666667,71.416667
Khanate of Kokand,,Khanate,1709–1876,Asia: Central,Uzbekistan ,,,
Emirate of Bukhara,,Emirate,1747–1826,Asia: Central,Uzbekistan ,,,
Khanate of Khiva,,Khanate,1511–1920,Asia: Central,Uzbekistan ,,,
Qing dynasty,Peking,Monarchy,1644–1912,Asia: East,China,China,39.91666667,116.383333
Republic of Formosa,,Republic,1895,Asia: East,Taiwan,Taiwan,25.03333333,121.516667
Taiping Heavenly Kingdom,,,1851–1864,Asia: East,China,China,39.91666667,116.383333
Republic of Ezo,,Republic,1869,Asia: East,Japan,Japan,35.68333333,139.75
Empire of Japan,,Empire,1868–1947,Asia: East,Japan,Japan,35.68333333,139.75
Ryukyu Kingdom,,Kingdom,1429–1879,Asia: East,Japan,Japan,35.68333333,139.75
Tokugawa shogunate,,Shogunate,1600–1868,Asia: East,Japan,Japan,35.68333333,139.75
Joseon,Hanseong,Kingdom,1392–1897,Asia: East,Korea,,,
Korean Empire,Hanseong,Empire,1897–1910,Asia: East,Korea,,,
Emirate of Afghanistan: Barakzai dynasty,,Emirate,1823–1926; 1929,Asia: South,Afghanistan,Afghanistan,34.51666667,69.183333
Durrani Empire,,Empire,1747–1826,Asia: South,Afghanistan,Afghanistan,34.51666667,69.183333
Theocratic Bhutan,,Kingdom,1616–1907,Asia: South,Bhutan,Bhutan,27.46666667,89.633333
Bhutan,,Kingdom,1650–1905,Asia: South,Bhutan,Bhutan,27.46666667,89.633333
British India,,"Colony, British",1858–1947,Asia: South,India,India,28.6,77.2
Company rule in India,,Company rule,1757–1858,Asia: South,India,India,28.6,77.2
Kharan,,Princely state (subsidiary alliance),1697–1948,Asia: South,India,India,28.6,77.2
Las Bela,,Princely state (subsidiary alliance),1742–1948,Asia: South,India,India,28.6,77.2
Makran,,Princely state (subsidiary alliance),18th century–1948,Asia: South,India,India,28.6,77.2
Manipur,,Princely state (subsidiary alliance),1110–1949,Asia: South,India,India,28.6,77.2
Alirajpur State,,Princely state (subsidiary alliance),1437–1948,Asia: South,India ,India,28.6,77.2
Alwar State,,Princely state (subsidiary alliance),1296–1949,Asia: South,India ,India,28.6,77.2
Athgarh,,Princely state (subsidiary alliance),1178–1949,Asia: South,India ,India,28.6,77.2
Kingdom of Cochin,Various,Kingdom,12th century–1947,Asia: South,India ,India,28.6,77.2
Hyderabad State,,,1803–1948,Asia: South,India ,India,28.6,77.2
Kashmir and Jammu,,Kingdom,1846-1953,Asia: South,India ,India,28.6,77.2
Ahom kingdom,,Kingdom,1228–1826,Asia: South,India ,India,28.6,77.2
Ajaigarh State,,,1765–1949,Asia: South,India ,India,28.6,77.2
Alipura State,,,1757–1950,Asia: South,India ,India,28.6,77.2
Garhwal Kingdom,Various,Kingdom,888–1949,Asia: South,India ,India,28.6,77.2
Jaisalmer State,Jaisalmer,Principality,1156–1947,Asia: South,India ,India,28.6,77.2
Mughal Empire,,Empire,1526–1540; 1555–1857,Asia: South,India ,India,28.6,77.2
Sirmoor State,Sirmür,Principality,1095–1948,Asia: South,India ,India,28.6,77.2
Maratha Empire,,Empire,1674–1820,Asia: South,India ,India,28.6,77.2
Kingdom of Mysore,"Mysore, Srirangapatna",Kingdom,1399–1947,Asia: South,India ,India,28.6,77.2
Sikh Empire,,Empire,1799–1849,Asia: South,India ,India,28.6,77.2
Kingdom of Sikkim,,Kingdom,1642–1975,Asia: South,India ,India,28.6,77.2
Travancore,,,1729–1949,Asia: South,India ,India,28.6,77.2
Huraa dynasty,,Monarchy,1757–1952; 1954–1968,Asia: South,Maldives,Maldives,4.166666667,73.5
Sultanate of the Maldives,,Sultanate,1117–1952; 1954–1968,Asia: South,Maldives,Maldives,4.166666667,73.5
Kingdom of Nepal,Kathmandu,Kingdom,1768–2008,Asia: South,Nepal,Nepal,27.71666667,85.316667
British Ceylon,,"Colony, British",1815–1948,Asia: South,Sri Lanka,Sri Lanka,6.916666667,79.833333
Bruneian Empire,Various,Empire,7th century–1888,Asia: Southeast,Brunei,,,
British rule in Burma,,"Colony, British",1824–1942; 1945–1948,Asia: Southeast,Burma,,,
Konbaung dynasty,,Monarchy,1752–1885,Asia: Southeast,Burma,,,
Kingdom of Cambodia: Middle Period,,Kingdom,early 15th century–1863,Asia: Southeast,Cambodia,Cambodia,11.55,104.916667
Dutch East Indies,,"Colony, Dutch",1800–1942; 1945–1949,Asia: Southeast,Indonesia ,,,
Lanfang Republic,,Republic,1777–1884,Asia: Southeast,Indonesia ,,,
Aceh Sultanate,,Sultanate,1496–1903,Asia: Southeast,Indonesia ,,,
Banten Sultanate,,Sultanate,1527–1813,Asia: Southeast,Indonesia ,,,
Sultanate of Serdang,,Kingdom,1888–c.1890,Asia: Southeast,Indonesia ,,,
Kingdom of Champasak,,Kingdom,1713–1946,Asia: Southeast,Laos,Laos,17.96666667,102.6
Federated Malay States,,,1895–1942; 1945–1946,Asia: Southeast,Malaysia,Malaysia,3.166666667,101.7
Sultanate of Pahang,,Sultanate,1470–1896,Asia: Southeast,Malaysia,Malaysia,3.166666667,101.7
Perak Sultanate: Siak dynasty,,Sultanate,1528–1896,Asia: Southeast,Malaysia,Malaysia,3.166666667,101.7
Selangor Sultanate,,Sultanate,1745–1896,Asia: Southeast,Malaysia,Malaysia,3.166666667,101.7
Sultanate of Maguindanao,,Sultanate,1500–1888,Asia: Southeast,Philippines,Philippines,14.6,120.966667
"Spanish East Indies, part of the Captaincy General of the Philippines",,"Colony, Spanish",1565–1898,Asia: Southeast,Philippines,Philippines,14.6,120.966667
Rattanakosin Kingdom of Siam,,Kingdom,1782–1932,Asia: Southeast,Thailand,Thailand,13.75,100.516667
Annam (French protectorate),,"Protectorate, French",1884–1945; 1945–1949,Asia: Southeast,Vietnam,Vietnam,21.03333333,105.85
Champa,"Indrapura, Vijaya, Panduranga",Kingdom,192–1832,Asia: Southeast,Vietnam,Vietnam,21.03333333,105.85
Cochinchina,,"Colony, French",1862–1945; 1945–1949,Asia: Southeast,Vietnam,Vietnam,21.03333333,105.85
Việt Nam: Nguyễn dynasty,,"Empire (1802–1883), Protectorate (1884–1945)",1802–1945,Asia: Southeast,Vietnam,Vietnam,21.03333333,105.85
Tây Sơn dynasty,,Kingdom,1778–1802,Asia: Southeast,Vietnam,Vietnam,21.03333333,105.85
Tonkin,,,1884–1945; 1945–1949,Asia: Southeast,Vietnam,Vietnam,21.03333333,105.85
North Borneo,,,1882–1941,Asia: Southeast,Malaysia,Malaysia,3.166666667,101.7
Kingdom of Sarawak,,Kingdom,1841–1941; 1945–1946,Asia: Southeast,Malaysia,Malaysia,3.166666667,101.7
Johor Sultanate,,Sultanate,1528–c.1949,Asia: Southeast,Malaysia,Malaysia,3.166666667,101.7
Pattani kingdom,,Kingdom,1516–1902,Asia: Southeast,Malaysia,Malaysia,3.166666667,101.7
Straits Settlements,,"Territory, British",1826–1942; 1945–1946,Asia: Southeast,Malaysia,Malaysia,3.166666667,101.7
Sultanate of Sulu,Various,Sultanate/client,1405–1915,Asia: Southeast,Philippines,Philippines,14.6,120.966667
Emirate of Jabal Shammar,,Emirate,1836–1921,Asia: West,Arabia,,,
Soran Emirate,,Emirate,1530s–1835,Asia: West,Iran,Iran,35.7,51.416667
Sheikhdom of Kuwait,,Sheikhdom,1752–1961,Asia: West,Kuwait,Kuwait,29.36666667,47.966667
Muscat and Oman,,,1820–1970,Asia: West,Oman,Oman,23.61666667,58.583333
Imamate of Oman,,Imamate,751–1970,Asia: West,Oman,Oman,23.61666667,58.583333
Persia: Qajar dynasty,,Monarchy,1789–1925,Asia: West,Persia,,,
Emirate of Nejd,,Emirate,1812–1891,Asia: West,Saudi Arabia,Saudi Arabia,24.65,46.7
Emirate of Diriyah,,Emirate,1744–1818,Asia: West,Saudi Arabia,Saudi Arabia,24.65,46.7
Ottoman Empire,,Empire,1299–1923,Asia: West,Turkey,Turkey,39.93333333,32.866667
Trucial States,,,1820–1971,Asia: West,United Arab Emirates,United Arab Emirates,24.46666667,54.366667
Emirate of Beihan,,Emirate,17th century–1967,Asia: West,Yeman,,,
Emirate of Dhala,,Emirate,15th century–1967,Asia: West,Yeman,,,
Upper Aulaqi Sheikhdom,,Sheikhdom,18th century–1967,Asia: West,Yeman,,,
Upper Aulaqi Sultanate,,Sultanate,18th century–1967,Asia: West,Yeman,,,
Upper Yafa,,Sultanate,c.1800–1967,Asia: West,Yeman,,,
Wahidi Balhaf,,,c.1640–1967,Asia: West,Yeman,,,
Wahidi Haban,,,c.1640–1967,Asia: West,Yeman,,,
Kingdom of Imereti,,Kingdom,1260–1810,Eurasia: Caucasus,Georgia,Georgia,41.68333333,44.833333
Principality of Bulgaria,,Principality,1878–1908,Europe: Balkans,Bulgaria,Bulgaria,42.68333333,23.316667
Kingdom of Croatia (Habsburg),,Kingdom,1527–1868,Europe: Balkans,Croatia,Croatia,45.8,16
Kingdom of Croatia-Slavonia,,Kingdom,1868–1918,Europe: Balkans,Croatia,Croatia,45.8,16
Republic of Ragusa,Ragusa,Republic,1358–1807,Europe: Balkans,Croatia,Croatia,45.8,16
Kingdom of Greece,Various,Kingdom,1832–1924; 1935–1941; 1944–1974,Europe: Balkans,Greece,Greece,37.98333333,23.733333
United States of the Ionian Islands,,,1815–1864,Europe: Balkans,Greece,Greece,37.98333333,23.733333
Septinsular Republic,,Republic,1800–1815,Europe: Balkans,Greece,Greece,37.98333333,23.733333
First Hellenic Republic,,Republic,1828–1832,Europe: Balkans,Greece,Greece,37.98333333,23.733333
Kosovo Vilayet,,,1877–1913,Europe: Balkans,Kosovo,Kosovo,42.66666667,21.166667
Prince-Bishopric of Montenegro,,Prince-Bishopric,1696–1852,Europe: Balkans,Montenegro,Montenegro,42.43333333,19.266667
Principality of Montenegro,,Principality,1852–1910,Europe: Balkans,Montenegro,Montenegro,42.43333333,19.266667
Kingdom of Serbia,,Kingdom,1882–1918,Europe: Balkans,Serbia,Serbia,44.83333333,20.5
Principality of Serbia,,Principality,1815–1882,Europe: Balkans,Serbia,Serbia,44.83333333,20.5
Illyrian Provinces,,"Protectorate, French",1809–1816,Europe: Balkans,Slovenia,Slovenia,46.05,14.516667
United Kingdom of Great Britain and Ireland,London,Kingdom,1801–1922,Europe: British Isles,United Kingdom,United Kingdom,51.5,-0.083333
Austria-Hungary,"Vienna, Budapest",Monarchy,1867–1918,Europe: Central,Austria,Austria,48.2,16.366667
Archduchy of Austria,Vienna,Archduchy,1453–1806/1918,Europe: Central,Austria,Austria,48.2,16.366667
Habsburg monarchy,,Composite monarchy,1526–1804,Europe: Central,Austria,Austria,48.2,16.366667
Austrian Empire,Vienna,Empire,1804–1867,Europe: Central,Austrian,,,
Kingdom of Bohemia,,Kingdom,1198–1918,Europe: Central,Czech Republic,Czech Republic,50.08333333,14.466667
German Confederation,,Confederation,1815–1866,Europe: Central,Germany,Germany,52.51666667,13.4
German Empire,Berlin,Empire,1871–1918,Europe: Central,Germany,Germany,52.51666667,13.4
Holy Roman Empire,Hamburg,Empire,962–1806,Europe: Central,Germany,Germany,52.51666667,13.4
North German Confederation,,Confederation,1867–1871,Europe: Central,Germany,Germany,52.51666667,13.4
Confederation of the Rhine,,Confederation,1806–1813,Europe: Central,Germany,Germany,52.51666667,13.4
Duchy of Anhalt,,Duchy,1806–1918,Europe: Central,Germany,Germany,52.51666667,13.4
Anhalt-Bernburg,,Monarchy,1252–1468; 1603–1863,Europe: Central,Germany,Germany,52.51666667,13.4
Anhalt-Dessau,,Monarchy,1396–1561; 1603–1863,Europe: Central,Germany,Germany,52.51666667,13.4
Anhalt-Köthen,,Monarchy,1396–1561; 1603–1853,Europe: Central,Germany,Germany,52.51666667,13.4
Principality of Aschaffenburg,,Principality,1803–1810,Europe: Central,Germany,Germany,52.51666667,13.4
Grand Duchy of Baden,,Grand Duchy,1806–1918,Europe: Central,Germany,Germany,52.51666667,13.4
Kingdom of Bavaria,,Kingdom,1805–1918,Europe: Central,Germany,Germany,52.51666667,13.4
Grand Duchy of Berg,,Grand Duchy,1806–1813,Europe: Central,Germany,Germany,52.51666667,13.4
Bremen,,City-state republic,1806–1867,Europe: Central,Germany,Germany,52.51666667,13.4
Duchy of Brunswick,Braunschweig,Duchy,1815–1918,Europe: Central,Germany,Germany,52.51666667,13.4
Free City of Frankfurt,,City-state republic,1372–1806; 1816–1866,Europe: Central,Germany,Germany,52.51666667,13.4
Grand Duchy of Frankfurt,,Client Grand Duchy,1810–1813,Europe: Central,Germany,Germany,52.51666667,13.4
Free Imperial City of Hamburg,,City-state,1806–1867,Europe: Central,Germany,Germany,52.51666667,13.4
Electorate of Brunswick-Lüneburg,,Electorate,1692–1807,Europe: Central,Germany,Germany,52.51666667,13.4
Kingdom of Hanover,,Kingdom,1814–1866,Europe: Central,Germany,Germany,52.51666667,13.4
Electorate of Hesse,,Monarchy,1803–1807; 1813–1866,Europe: Central,Germany,Germany,52.51666667,13.4
Grand Duchy of Hesse and by Rhine,,Grand Duchy,1806–1918,Europe: Central,Germany,Germany,52.51666667,13.4
Landgraviate of Hesse-Darmstadt,,Landgraviate,1567–1806,Europe: Central,Germany,Germany,52.51666667,13.4
Hesse-Homburg,,Landgraviate,1622–1866,Europe: Central,Germany,Germany,52.51666667,13.4
Hohenzollern-Hechingen,,Monarchy,1576–1850,Europe: Central,Germany,Germany,52.51666667,13.4
Hohenzollern-Sigmaringen,,Monarchy,1576–1850,Europe: Central,Germany,Germany,52.51666667,13.4
Duchy of Holstein,,Duchy,1474–1864,Europe: Central,Germany,Germany,52.51666667,13.4
Principality of Leyen,,Client Principality,1806–1814,Europe: Central,Germany,Germany,52.51666667,13.4
Principality of Lippe,,Principality,1123–1918,Europe: Central,Germany,Germany,52.51666667,13.4
Free City of Lübeck,,City-state,1226–1811; 1815–1937,Europe: Central,Germany,Germany,52.51666667,13.4
Electorate of Mainz,,Monarchy,780–1803,Europe: Central,Germany,Germany,52.51666667,13.4
Duchy of Mecklenburg-Schwerin,,Duchy,1379–1815,Europe: Central,Germany,Germany,52.51666667,13.4
Grand Duchy of Mecklenburg-Schwerin,,Grand Duchy,1815–1918,Europe: Central,Germany,Germany,52.51666667,13.4
Duchy of Mecklenburg-Strelitz,,Duchy,1701–1815,Europe: Central,Germany,Germany,52.51666667,13.4
Grand Duchy of Mecklenburg-Strelitz,,Grand Duchy,1815–1918,Europe: Central,Germany,Germany,52.51666667,13.4
Duchy of Nassau,,Duchy,1806–1866,Europe: Central,Germany,Germany,52.51666667,13.4
Grand Duchy of Oldenburg,,Grand Duchy,1814–1918,Europe: Central,Germany,Germany,52.51666667,13.4
Kingdom of Prussia,,Kingdom,1701–1918,Europe: Central,Germany,Germany,52.51666667,13.4
Prussia,,Kingdom,1525–1947,Europe: Central,Germany,Germany,52.51666667,13.4
Principality of Regensburg,,Principality,1803–1810,Europe: Central,Germany,Germany,52.51666667,13.4
Reuss,,,c.1010–1778/1806,Europe: Central,Germany,Germany,52.51666667,13.4
Reuss-Ebersdorf,,Monarchy,1678–1824,Europe: Central,Germany,Germany,52.51666667,13.4
Principality of Reuss-Gera,,Principality,1806–1918,Europe: Central,Germany,Germany,52.51666667,13.4
Principality of Reuss-Greiz,,Principality,1778–1918,Europe: Central,Germany,Germany,52.51666667,13.4
Reuss-Lobenstein,,Monarchy,1425–1547; 1647–1824,Europe: Central,Germany,Germany,52.51666667,13.4
Duchy of Saxe-Altenburg,,Duchy,1602–1672; 1826–1920,Europe: Central,Germany,Germany,52.51666667,13.4
Saxe-Coburg and Gotha,,Duchy,1826–1918,Europe: Central,Germany,Germany,52.51666667,13.4
Saxe-Coburg-Saalfeld,,Duchy,1699–1825,Europe: Central,Germany,Germany,52.51666667,13.4
Saxe-Gotha-Altenburg,,Duchy,1680–1826,Europe: Central,Germany,Germany,52.51666667,13.4
Saxe-Hildburghausen,,Duchy,1680–1826,Europe: Central,Germany,Germany,52.51666667,13.4
Saxe-Lauenburg,,Duchy,1296–1803; 1814–1876,Europe: Central,Germany,Germany,52.51666667,13.4
Duchy of Saxe-Meiningen,,Duchy,1680–1918,Europe: Central,Germany,Germany,52.51666667,13.4
Grand Duchy of Saxe-Weimar-Eisenach,,Grand Duchy,1809–1918,Europe: Central,Germany,Germany,52.51666667,13.4
Kingdom of Saxony,,Kingdom,1806–1918,Europe: Central,Germany,Germany,52.51666667,13.4
Principality of Schaumburg-Lippe,,Principality,1643–1918,Europe: Central,Germany,Germany,52.51666667,13.4
Schwarzburg-Rudolstadt,,Principality,1599–1919,Europe: Central,Germany,Germany,52.51666667,13.4
Schwarzburg-Sondershausen,,Principality,1599–1920,Europe: Central,Germany,Germany,52.51666667,13.4
Waldeck,,Principality,1180–1918,Europe: Central,Germany,Germany,52.51666667,13.4
Kingdom of Westphalia,,Kingdom,1807–1813,Europe: Central,Germany,Germany,52.51666667,13.4
Württemberg,,Monarchy,11th century–1918,Europe: Central,Germany,Germany,52.51666667,13.4
Grand Duchy of Würzburg,,Grand Duchy,1805–1814,Europe: Central,Germany,Germany,52.51666667,13.4
Kingdom of Hungary,Various,Kingdom,1000–1918,Europe: Central,Hungary,Hungary,47.5,19.083333
Liechtenstein,,Principality,1806–present,Europe: Central,Liechtenstein,Liechtenstein,47.13333333,9.516667
Kingdom of Galicia and Lodomeria,,Kingdom,1772–1918,Europe: Central,Poland,Poland,52.25,21
Free City of Kraków,,City-state republic,1815–1846,Europe: Central,Poland,Poland,52.25,21
Duchy of Warsaw,,Occupation,1807–1815,Europe: Central,Poland,Poland,52.25,21
Helvetic Republic,,Republic,1798–1803,Europe: Central,Switzerland,Switzerland,46.91666667,7.466667
Switzerland of the Napoleonic era,,Confederation,1803–1815,Europe: Central,Switzerland,Switzerland,46.91666667,7.466667
Restoration and Regeneration in Switzerland,,,1815–1848,Europe: Central,Switzerland,Switzerland,46.91666667,7.466667
Switzerland,,,1848–present,Europe: Central,Switzerland,Switzerland,46.91666667,7.466667
Principality of Moldavia,,Principality,1346–1859,Europe: East,Romania,Romania,44.43333333,26.1
United Principalities of Moldavia and Wallachia,,Principalities,1859–1881,Europe: East,Romania,Romania,44.43333333,26.1
Kingdom of Romania,,Kingdom,1881–1947,Europe: East,Romania,Romania,44.43333333,26.1
Principality of Wallachia,,Principality,1330–1859,Europe: East,Romania,Romania,44.43333333,26.1
Governorate of Estonia,,Province (Russia),1721–1917,"Europe: East, Baltic",Estonia,Estonia,59.43333333,24.716667
Russian Empire,,Empire,1721–1917,Europe: East; Asia: Central,Russia,Russia,55.75,37.6
Denmark,Various,Kingdom,1814–present,Europe: Nordic,Denmark,Denmark,55.66666667,12.583333
Denmark–Norway,,Kingdom,1524–1814,Europe: Nordic,Denmark,Denmark,55.66666667,12.583333
Duchy of Schleswig,,Duchy,1058–1866,Europe: Nordic,Denmark,Denmark,55.66666667,12.583333
Grand Duchy of Finland,,Grand Duchy,1809–1917,Europe: Nordic,Finland,Finland,60.16666667,24.933333
Kingdom of Norway (1814),,Kingdom,1814,Europe: Nordic,Norway,Norway,59.91666667,10.75
Gustavian era Sweden,,,1523–1814; 1905–present,Europe: Nordic,Sweden,Sweden,59.33333333,18.05
Sweden–Norway,Various,Kingdom,1814–1905,Europe: Nordic,Sweden,Sweden,59.33333333,18.05
Cisalpine Republic,,Republic,1797–1802,Europe: Southcentral,Italy,Italy,41.9,12.483333
Republic of Cospaia,,Republic,1440–1826,Europe: Southcentral,Italy,Italy,41.9,12.483333
Sovereign Principality of Elba,,Principality,1814–1815,Europe: Southcentral,Italy,Italy,41.9,12.483333
Kingdom of Etruria,,Kingdom,1801–1807,Europe: Southcentral,Italy,Italy,41.9,12.483333
Republic of Genoa,,Republic,1005–1797; 1814–1815,Europe: Southcentral,Italy,Italy,41.9,12.483333
Italian Republic (Napoleonic),,Republic/client,1802–1805,Europe: Southcentral,Italy,Italy,41.9,12.483333
Kingdom of Italy (Napoleonic),,Kingdom,1805–1814,Europe: Southcentral,Italy,Italy,41.9,12.483333
Kingdom of Italy,,Kingdom,1861–1946,Europe: Southcentral,Italy,Italy,41.9,12.483333
Ligurian Republic,,Republic,1797–1805,Europe: Southcentral,Italy,Italy,41.9,12.483333
Kingdom of Lombardy–Venetia,,Kingdom,1815–1866,Europe: Southcentral,Italy,Italy,41.9,12.483333
Lucca,,Duchy,1815–1847,Europe: Southcentral,Italy,Italy,41.9,12.483333
Republic of Lucca,Lucca,Republic,1160–1805,Europe: Southcentral,Italy,Italy,41.9,12.483333
Duchy of Massa and Principality of Carrara,,Duchy,15th–19th century,Europe: Southcentral,Italy,Italy,41.9,12.483333
Duchy of Modena and Reggio,,Duchy,1452–1796; 1814–1859,Europe: Southcentral,Italy,Italy,41.9,12.483333
Kingdom of Naples,,Kingdom,1285–1816,Europe: Southcentral,Italy,Italy,41.9,12.483333
Kingdoms of Naples and Sicily,,Kingdom,1043–1410; 1442–1500; 1735–1816,Europe: Southcentral,Italy,Italy,41.9,12.483333
Duchy of Parma,,Duchy,1545–1859,Europe: Southcentral,Italy,Italy,41.9,12.483333
Kingdom of Sardinia,"Cagliari, Turin",Kingdom,1324–1861,Europe: Southcentral,Italy,Italy,41.9,12.483333
Kingdom of Trinacria: Sicily,Various,Kingdom,1130–1816,Europe: Southcentral,Italy,Italy,41.9,12.483333
Duchy of Tridentum,Benevento,Duchy/Principality,574–1802,Europe: Southcentral,Italy,Italy,41.9,12.483333
Grand Duchy of Tuscany,,Grand Duchy,1569–1801; 1815–1859,Europe: Southcentral,Italy,Italy,41.9,12.483333
Kingdom of the Two Sicilies,,Kingdom,1816–1861,Europe: Southcentral,Italy,Italy,41.9,12.483333
Gozo,,,1798–1801,Europe: Southcentral,Italy,Italy,41.9,12.483333
Roman Republic (19th century),,Republic,1849,Europe: Southcentral,Italy,Italy,41.9,12.483333
Malta Protectorate,,"Protectorate, British",1800–1813,Europe: Southcentral,Malta,Malta,35.88333333,14.5
Crown Colony of Malta,,"Colony, British",1813–1964,Europe: Southcentral,Malta,Malta,35.88333333,14.5
Papal States,Rome,Pontificate,754–1870,Europe: Southcentral,Papal,,,
San Marino,San Marino,Republic,AD 301–present,Europe: Southcentral,San Marino,San Marino,43.93333333,12.416667
Andorra,,Principality,1278–present,Europe: Southwest,Andorra,Andorra,42.5,1.516667
Kingdom of Portugal,Various,Kingdom,1139–1910,Europe: Southwest,Portugal,Portugal,38.71666667,-9.133333
Bourbon Spain,,Kingdom,1700–1812,Europe: Southwest,Spain,Spain,40.4,-3.683333
First Spanish Republic,,Republic,1873–1874,Europe: Southwest,Spain,Spain,40.4,-3.683333
Kingdom of Spain (1810–1873),,Kingdom,1813–1873,Europe: Southwest,Spain,Spain,40.4,-3.683333
Bourbon Restoration of Spain,"Toledo, Madrid",Kingdom,1874–1931,Europe: Southwest,Spain,Spain,40.4,-3.683333
Kingdom of Galicia,Santiago de Compostela,Kingdom,409–1833,Europe: Southwest,Spain,Spain,40.4,-3.683333
Alsace-Lorraine,,German Colony,1871–1918,Europe: West,France,France,48.86666667,2.333333
Bourbon Restoration in France,Paris,,1814–1815; 1815–1830,Europe: West,France,France,48.86666667,2.333333
First French Empire,,Empire,1804–1814; 1815,Europe: West,France,France,48.86666667,2.333333
French First Republic,,Republic,1792–1804,Europe: West,France,France,48.86666667,2.333333
French Second Republic,,Republic,1848–1852,Europe: West,France,France,48.86666667,2.333333
July Monarchy,,Monarchy,1830–1848,Europe: West,France,France,48.86666667,2.333333
French Third Republic,,Republic,1870–1940,Europe: West,France,France,48.86666667,2.333333
Second French Empire,,Empire,1852–1870,Europe: West,France,France,48.86666667,2.333333
Roquebrune-Cap-Martin,,,1848–1860,Europe: West,France,France,48.86666667,2.333333
Monaco,,,1419–1793; 1814–present,Europe: West,Monaco,Monaco,43.73333333,7.416667
Belgium,Brussels,Kingdom,1830–present,"Europe: West, Low Countries",Belgium,Belgium,50.83333333,4.333333
Luxembourg,,,1815–present,"Europe: West, Low Countries",Luxembourg,Luxembourg,49.6,6.116667
Batavian Republic,,Republic,1795–1806,"Europe: West, Low Countries",Netherlands,Netherlands,52.35,4.916667
Kingdom of Holland,,Kingdom,1806–1810,"Europe: West, Low Countries",Netherlands,Netherlands,52.35,4.916667
Sovereign Principality of the United Netherlands,,Principality,1813–1815,"Europe: West, Low Countries",Netherlands,Netherlands,52.35,4.916667
United Kingdom of the Netherlands,,Kingdom,1815–1839,"Europe: West, Low Countries",Netherlands,Netherlands,52.35,4.916667
Kingdom of the Netherlands,,Kingdom,1839–present,"Europe: West, Low Countries",Netherlands,Netherlands,52.35,4.916667
Australia,,"Colony, British",1788–1901,Oceania,Australia,Australia,-35.26666667,149.133333
Kingdom of Bora Bora,,Kingdom,Early 19th century–1895*,Oceania,Bora Bora,,,
Cook Islands Federation,,Federation,1893–1901,Oceania,Cook Islands,Cook Islands,-21.2,-159.766667
Portuguese Timor,,"Colony, Portuguese",1702–1975,Oceania,East Timor,,,
Easter Island,,Kingdom,900–1878,Oceania,Easter Island,,,
Colony of Fiji,,"Colony, British",1874–1970,Oceania,Fiji,Fiji,-18.13333333,178.416667
Kingdom of Fiji,,Kingdom,1871–1874,Oceania,Fiji,Fiji,-18.13333333,178.416667
Kingdom of Huahine,,Kingdom,1760–1895,Oceania,French Polynesia,French Polynesia,-17.53333333,-149.566667
Kingdom of Mangareva,,Kingdom,18th century–1881,Oceania,French Polynesia,French Polynesia,-17.53333333,-149.566667
Raiatea,,Monarchy,18th century–1888,Oceania,French Polynesia,French Polynesia,-17.53333333,-149.566667
Gilbert and Ellice Islands,,British Colony,1892–1976,Oceania,Kiribati,Kiribati,-0.883333333,169.533333
German New Guinea,,"Colony, German",1884–1919,Oceania,New Guinea,,,
Kingdom of Rarotonga,,Kingdom,1858–1893,Oceania,New Zealand,New Zealand,-41.3,174.783333
Colony of New Zealand,,"Colony, British",1841–1907,Oceania,New Zealand,New Zealand,-41.3,174.783333
Niuean monarchy,,Monarchy,c. 1700–1900,Oceania,Niue,Niue,-19.01666667,-169.916667
British protectorate of Niue,,"Protectorate, British",1900–1974,Oceania,Niue,Niue,-19.01666667,-169.916667
Territory of Papua,,"Territory, British",1883–1949,Oceania,Papua New Guinea,Papua New Guinea,-9.45,147.183333
German Samoa,,"Colony, German",1900–1920,Oceania,Samoa,Samoa,-13.81666667,-171.766667
Malietoa dynasty (Samoa),,Monarchy,pre-1858–1900,Oceania,Samoa,Samoa,-13.81666667,-171.766667
Tui Manua dynasty (Samoa),,Monarchy,up to 1900,Oceania,Samoa,Samoa,-13.81666667,-171.766667
British Solomon Islands,,"Colony, British",1893–1978,Oceania,Solomon Islands,Solomon Islands,-9.433333333,159.95
Kingdom of Tahiti,,Kingdom,1788–1880,Oceania,Tahiti,,,
Kingdom of Tonga (1900–1970),,Protectorate,1900–1970,Oceania,Tonga,Tonga,-21.13333333,-175.2
Tonga,,Kingdom,1845–1900; 1970–present,Oceania,Tonga,Tonga,-21.13333333,-175.2
Tuʻi Tonga Empire,,Empire,450s–1865,Oceania,Tonga,Tonga,-21.13333333,-175.2
Hawaiian Kingdom,,Kingdom,1795–1893,Oceania,United States,United States,38.883333,-77
Provisional Government of Hawaii,,Provisional Government,1893–1894,Oceania,United States,United States,38.883333,-77
Republic of Hawaii,,Republic,1894–1898,Oceania,United States,United States,38.883333,-77
Anglo-French Joint Naval Commission,,"Colony, British/French",1887–1906,Oceania,Vanuatu,Vanuatu,-17.73333333,168.316667